{
  "norad_id": 63752,
  "name": "STARLINK-11702 [DTC]",
  "history": [
    {
      "epoch": "2026-03-28T14:55:06.582144Z",
      "apogee_km": 357.02671652357185,
      "perigee_km": 355.69328611731,
      "latitude_deg": 6.528089780595332e-06,
      "longitude_deg": 128.25486472301836,
      "height_km": 355.9851492229132,
      "semi_major_axis_km": 6734.49700132044,
      "eccentricity": 9.9e-05,
      "inclination_deg": 42.9993,
      "raan_deg": 178.0717,
      "arg_perigee_deg": 282.7253,
      "mean_anomaly_deg": 77.3504,
      "mean_motion_rev_day": 15.70887255
    },
    {
      "epoch": "2026-03-30T05:04:06.211200Z",
      "apogee_km": 357.16944930459886,
      "perigee_km": 355.57606429614043,
      "latitude_deg": 1.64156425630108e-06,
      "longitude_deg": -95.14135487887941,
      "height_km": 355.97929502989655,
      "semi_major_axis_km": 6734.509756800369,
      "eccentricity": 0.0001183,
      "inclination_deg": 43.0001,
      "raan_deg": 168.4907,
      "arg_perigee_deg": 282.0068,
      "mean_anomaly_deg": 78.0667,
      "mean_motion_rev_day": 15.70882792
    },
    {
      "epoch": "2026-03-30T05:04:06.212064Z",
      "apogee_km": 357.16951664969656,
      "perigee_km": 355.5759969510427,
      "latitude_deg": 2.436013741486543e-06,
      "longitude_deg": -95.14135764161938,
      "height_km": 355.9792810195731,
      "semi_major_axis_km": 6734.509756800369,
      "eccentricity": 0.00011831,
      "inclination_deg": 43.0001,
      "raan_deg": 168.4907,
      "arg_perigee_deg": 282.0068,
      "mean_anomaly_deg": 78.0667,
      "mean_motion_rev_day": 15.70882792
    },
    {
      "epoch": "2026-03-30T14:13:28.124832Z",
      "apogee_km": 357.57813252104006,
      "perigee_km": 355.25282624096053,
      "latitude_deg": -1.662362931435229e-05,
      "longitude_deg": 124.84129214885651,
      "height_km": 356.40353669570726,
      "semi_major_axis_km": 6734.552479381,
      "eccentricity": 0.00017264,
      "inclination_deg": 43.0005,
      "raan_deg": 166.1907,
      "arg_perigee_deg": 259.3261,
      "mean_anomaly_deg": 100.7412,
      "mean_motion_rev_day": 15.70867844
    },
    {
      "epoch": "2026-03-31T13:06:51.849216Z",
      "apogee_km": 357.41783769388803,
      "perigee_km": 355.2873145715839,
      "latitude_deg": -1.6563845682665433e-05,
      "longitude_deg": 134.8040860982074,
      "height_km": 355.9706740802175,
      "semi_major_axis_km": 6734.489576132736,
      "eccentricity": 0.00015818,
      "inclination_deg": 43.0005,
      "raan_deg": 160.4424,
      "arg_perigee_deg": 278.3426,
      "mean_anomaly_deg": 81.7262,
      "mean_motion_rev_day": 15.70889853
    }
  ]
}